ONEWEB-0588             
1 55153U 23004P   25004.24813942  .00000128  00000+0  29168-3 0  9991
2 55153  87.9102  80.7420 0002333 103.5375 256.6017 13.18686369 99987
ONEWEB-0598             
1 55154U 23004Q   25003.58436696 -.00000263  00000+0 -77663-3 0  9990
2 55154  87.8907 126.6344 0001850 127.9624 232.1671 13.11415674 96484
ONEWEB-0599             
1 55155U 23004R   25003.52199823  .00000166  00000+0  39440-3 0  9994
2 55155  87.9105 111.3868 0001674 111.3429 248.7882 13.17649945 97734
ONEWEB-0614             
1 55156U 23004S   25004.34225195 -.00000014  00000+0 -76543-4 0  9998
2 55156  87.8910 126.4905 0001782  93.8434 266.2897 13.11414422 96540
ONEWEB-0616             
1 55157U 23004T   25004.32353199  .00000085  00000+0  18569-3 0  9992
2 55157  87.9103 111.2262 0000616 132.3186 227.7997 13.17651100 98055
ONEWEB-0617             
1 55158U 23004U   25003.79631243  .00000370  00000+0  10080-2 0  9998
2 55158  87.8907 126.5859 0002032 102.0232 258.1124 13.11414615 96485
ONEWEB-0618             
1 55159U 23004V   25004.12495421  .00000771  00000+0  30613-3 0  9993
2 55159  86.9069  22.0178 0012988   2.6528 357.4731 14.27545290104000
ONEWEB-0619             
1 55160U 23004W   25004.27966026 -.00005928  00000+0 -15304-1 0  9994
2 55160  87.9104 111.2124 0001693  95.7023 264.4302 13.17680216 97940
